STARLINK-33981
1 63888U 26102.41887731  1.24470-4 1.04980-3 0 0                     
2 63888  70.0015 149.4854 0002827 268.8960  91.1875 14.98306201      
STARLINK-33738
1 63889U 26102.53946759  2.87003-3 2.25490-2 0 0                     
2 63889  70.0011 149.0795 0005758 298.1359  61.9218 14.99242810      
STARLINK-34116
1 63890U 26102.08733796  1.49750-4 5.52850-4 0 0                     
2 63890  43.0000 347.7788 0001168 279.9495  80.1225 15.27563709      
STARLINK-34123
1 63891U 26102.68993056  1.20130-4 4.45360-4 0 0                     
2 63891  43.0013 344.5621 0001075 284.3978  75.6755 15.27578267      
STARLINK-33972
1 63893U 26102.73347222  2.04040-4 7.48390-4 0 0                     
2 63893  43.0035 344.0229 0001549 229.8625 130.2091 15.27603661      
STARLINK-33973
1 63894U 26102.69750000  1.31190-4 4.85420-4 0 0                     
2 63894  43.0024 343.7481 0001068 273.4762  86.5968 15.27577872      
STARLINK-34119
1 63895U 26102.68222222  1.28310-4 4.74990-4 0 0                     
2 63895  43.0004 344.5012 0001329 267.7764  92.2936 15.27578706      
STARLINK-34143
1 63896U 26102.72190972  1.26870-4 4.69820-4 0 0                     
2 63896  43.0037 343.9330 0001020 270.0614  90.0120 15.27575869      
STARLINK-33957
1 63897U 26102.35914352  1.16620-4 4.32530-4 0 0                     
2 63897  43.0032 346.3758 0001421 273.3676  86.7013 15.27588926      
STARLINK-34120
1 63898U 26102.36671296  1.64470-4 6.05920-4 0 0                     
2 63898  43.0022 345.5651 0000749 324.8604  35.2198 15.27576668      
STARLINK-34134
1 63899U 26102.01807870  7.27400-5 2.73644-4 0 0                     
2 63899  43.0030 348.1161 0001357 269.1410  90.9286 15.27575246      
STARLINK-34118
1 63900U 26102.08988426  6.85600-5 2.58490-4 0 0                     
2 63900  43.0011 347.7939 0001544 277.0779  82.9897 15.27574933      
STARLINK-34125
1 63901U 26102.40268519  1.59960-4 5.88960-4 0 0                     
2 63901  43.0042 345.8371 0001915 286.2020  73.8621 15.27612420      
STARLINK-33955
1 63902U 26102.70006944  1.37690-4 5.09020-4 0 0                     
2 63902  43.0043 343.7673 0001279 259.1998 100.8710 15.27576026      
STARLINK-34097
1 63903U 26102.39240741  1.10990-4 4.12320-4 0 0                     
2 63903  43.0032 345.7568 0001187 272.1597  87.9119 15.27573628      
STARLINK-34092
1 63904U 26102.02964120  1.21720-4 4.51212-4 0 0                     
2 63904  43.0001 348.2027 0001345 262.7799  97.2900 15.27573599      
STARLINK-34114
1 63905U 26102.36428241  1.33940-4 4.95390-4 0 0                     
2 63905  42.9989 346.4125 0001434 274.4517  85.6171 15.27577265      
STARLINK-33770
1 63906U 26102.70905093  1.44750-4 5.34340-4 0 0                     
2 63906  43.0024 343.8306 0000705  42.1469 317.9436 15.27591020      
STARLINK-34106
1 63907U 26102.37827546  1.08770-4 4.04300-4 0 0                     
2 63907  43.0011 345.6491 0001728 269.0402  91.0252 15.27572856      
STARLINK-34083
1 63908U 26102.36042824  5.75700-5 2.18590-4 0 0                     
2 63908  43.0005 346.3827 0001182 265.4518  94.6199 15.27576669      
STARLINK-34066
1 63909U 26102.08474537  2.03120-4 7.45473-4 0 0                     
2 63909  43.0034 347.7548 0001603 276.0082  84.0587 15.27585526      
STARLINK-34071
1 63910U 26102.67965278  1.57160-4 5.79620-4 0 0                     
2 63910  43.0011 344.4788 0001446 260.5082  99.5606 15.27568774      
STARLINK-34038
1 63911U 26102.40396991  8.29500-5 3.10610-4 0 0                     
2 63911  43.0035 345.8463 0001638 272.7711  87.2953 15.27581535      
STARLINK-34031
1 63912U 26102.66937500  1.43160-4 5.28750-4 0 0                     
2 63912  43.0013 344.4013 0001060 300.8479  59.2269 15.27578561      
STARLINK-34070
1 63913U 26102.40011574  1.12680-4 4.18520-4 0 0                     
2 63913  43.0040 345.8147 0001684 267.1687  92.8972 15.27566641      
STARLINK-34068
1 63914U 26102.71677083  1.34120-4 4.96010-4 0 0                     
2 63914  43.0000 343.8908 0000557 299.3614  60.7182 15.27580049      
STARLINK-34076
1 63915U 26102.39626157  1.06380-4 3.95660-4 0 0                     
2 63915  43.0026 345.7843 0001689 263.4590  96.6069 15.27571171      
STARLINK-33910
1 63916U 26102.37440972  1.47540-4 5.44600-4 0 0                     
2 63916  42.9999 345.6178 0001845 264.7991  95.2650 15.27579288      
STARLINK-34075
1 63917U 26102.38598380  8.37400-5 3.13550-4 0 0                     
2 63917  43.0032 345.7046 0001428 262.8007  97.2682 15.27572203      
YAOGAN-40 02A
1 63918U 26102.82202546  8.90000-7 3.80310-5 0 0                     
2 63918  85.9975 217.2395 0001561  91.9497 268.1864 14.12435878      
YAOGAN-40 02B
1 63919U 26102.82218750  1.40000-6 6.54500-5 0 0                     
2 63919  85.9969 217.2144 0002032  90.9397 269.2019 14.12439620      
YAOGAN-40 02C
1 63920U 26102.82210648  1.40000-6 6.54400-5 0 0                     
2 63920  85.9978 216.4850 0001759  99.5502 260.5880 14.12434837      
TJS-19
1 63924U 26102.76532407  2.79000-6  00000-0 0 0                      
2 63924   3.3993 316.3858 0001435 341.2922 320.0569  1.00269973      
STARLINK-34012
1 63926U 26102.49844907  3.27800-5 2.82380-4 0 0                     
2 63926  70.0022 189.3350 0003049 265.0762  95.0049 14.98334956      
STARLINK-33956
1 63927U 26102.65281250  1.75200-5 1.54570-4 0 0                     
2 63927  70.0033 188.6657 0003225 269.5997  90.4793 14.98332200      
STARLINK-33997
1 63928U 26102.83334491  4.76670-4 4.01130-3 0 0                     
2 63928  70.0005 188.5632 0003215 272.5942  25.9089 14.98358798      
STARLINK-33989
1 63929U 26102.83334491  4.72160-4 3.97310-3 0 0                     
2 63929  70.0004 188.4195 0003159 273.1015 159.5645 14.98357071      
STARLINK-33980
1 63930U 26102.50681713  1.05770-4 8.80940-4 0 0                     
2 63930  70.0016 189.3666 0004458 276.0795  83.9856 14.98284074      
STARLINK-33994
1 63931U 26102.61540509  1.06780-4 8.88900-4 0 0                     
2 63931  70.0027 188.9402 0003087 261.2868  98.7941 14.98311419      
STARLINK-33971
1 63932U 26102.50278935  2.14400-5 1.87430-4 0 0                     
2 63932  70.0019 189.3520 0003174 269.7744  90.3051 14.98333604      
STARLINK-33877
1 63933U 26102.65714120  1.71130-4 1.43100-3 0 0                     
2 63933  70.0020 188.6722 0003764 288.2177  71.8572 14.98299008      
STARLINK-33895
1 63934U 26102.86592593  2.45525-3 2.16600-2 0 0                     
2 63934  70.0050 188.2068 0001965 315.9455  44.1547 14.97684613      
STARLINK-34005
1 63935U 26102.64028935  2.01520-3 1.61870-2 0 0                     
2 63935  70.0009 189.0212 0001800 181.0251 179.0905 14.98873111      
STARLINK-34027
1 63936U 26102.64879630  3.83600-5 3.13890-4 0 0                     
2 63936  70.0021 188.6503 0003487 272.7468  87.3292 14.98323701      
STARLINK-34035
1 63937U 26102.67802083  1.01700-5 9.30050-5 0 0                     
2 63937  70.0017 188.7568 0003338 270.0659  90.0117 14.98332684      
STARLINK-33988
1 63938U 26102.69037037  3.84080-4 3.22340-3 0 0                     
2 63938  70.0015 188.8011 0004167 274.2549  85.8134 14.98390405      
STARLINK-34020
1 63939U 26102.59454861  4.91700-5 4.19170-4 0 0                     
2 63939  70.0014 188.8645 0003845 266.0015  94.0705 14.98367087      
STARLINK-34021
1 63940U 26102.83334491  4.75440-4 4.00090-3 0 0                     
2 63940  70.0005 188.5626 0003244 272.5772  25.0362 14.98358092      
STARLINK-34004
1 63941U 26102.73600694  3.17969-3 2.48230-2 0 0                     
2 63941  70.0016 188.5493 0006430 287.3729  72.6727 14.99315562      
STARLINK-34014
1 63942U 26102.83334491  4.51560-4 3.79860-3 0 0                     
2 63942  70.0003 188.3402 0003129 272.5259 228.5602 14.98355367      
STARLINK-33985
1 63943U 26102.52346065  2.75100-5 2.38250-4 0 0                     
2 63943  70.0022 189.0068 0003318 269.8681  90.2098 14.98336512      
STARLINK-33996
1 63944U 26102.69054398  2.35760-4 1.97960-3 0 0                     
2 63944  70.0020 188.7996 0004401 270.0049  90.0606 14.98277659      
STARLINK-34036
1 63945U 26102.56537037  1.78700-5 1.57520-4 0 0                     
2 63945  70.0022 189.1676 0003347 268.5862  91.4914 14.98331858      
STARLINK-34039
1 63946U 26102.22739583  1.05540-4 8.91126-4 0 0                     
2 63946  70.0015 189.9929 0003288 266.3688  93.7095 14.98322958      
STARLINK-34034
1 63947U 26102.49427083  2.38400-5 2.07490-4 0 0                     
2 63947  70.0008 189.3196 0003392 268.9738  91.1033 14.98334197      
STARLINK-33983
1 63948U 26102.60709491  3.63750-4 3.04430-3 0 0                     
2 63948  70.0003 188.9075 0003739 289.7795  70.2960 14.98281124      
STARLINK-33993
1 63949U 26102.83334491  4.58770-4 3.85940-3 0 0                     
2 63949  70.0006 188.2035 0003306 272.2791 340.4640 14.98357422      
STARLINK-33962
1 63950U 26102.83334491  4.61270-4 3.87980-3 0 0                     
2 63950  70.0005 188.2629 0003453 270.8514 297.7553 14.98365558      
STARLINK-33998
1 63951U 26102.39842593  1.40410-4 1.18380-3 0 0                     
2 63951  70.0016 189.3842 0003652 269.5168  90.5573 14.98276155      
STARLINK-34159
1 63952U 26102.69504630  4.23100-5 1.44330-4 0 0                     
2 63952  43.0026 344.4711 0001880 269.7926  90.2710 15.27571370      
STARLINK-34137
1 63953U 26102.08858796  1.65990-4 6.11016-4 0 0                     
2 63953  43.0013 347.6576 0001619 264.7167  95.3500 15.27597466      
STARLINK-33974
1 63954U 26102.70276620  1.44920-4 5.35010-4 0 0                     
2 63954  42.9999 344.5290 0000279 280.8494  79.2326 15.27586449      
STARLINK-34170
1 63955U 26102.37197917  9.92400-5 3.69760-4 0 0                     
2 63955  43.0031 346.3455 0001169 273.6684  86.4034 15.27572724      
STARLINK-34187
1 63956U 26102.69248843  1.25870-4 4.66150-4 0 0                     
2 63956  42.9970 344.4521 0000261 293.5010  66.5814 15.27579523      
